[{"OBJECT_NAME":"STARLINK-32312","OBJECT_ID":"2024-196E","EPOCH":"2026-03-09T12:22:51.526560","MEAN_MOTION":15.30203384,"ECCENTRICITY":6.133e-5,"INCLINATION":53.1587,"RA_OF_ASC_NODE":101.8867,"ARG_OF_PERICENTER":67.6475,"MEAN_ANOMALY":292.4591,"EPHEMERIS_TYPE":0,"CLASSIFICATION_TYPE":"U","NORAD_CAT_ID":61711,"ELEMENT_SET_NO":999,"REV_AT_EPOCH":7713,"BSTAR":0.00016915348,"MEAN_MOTION_DOT":4.655e-5,"MEAN_MOTION_DDOT":0},{"OBJECT_NAME":"SPACEMOBILE-005 DEB","OBJECT_ID":"2024-163K","EPOCH":"2026-03-09T07:33:15.902496","MEAN_MOTION":15.31481997,"ECCENTRICITY":0.00072885,"INCLINATION":52.9762,"RA_OF_ASC_NODE":31.7924,"ARG_OF_PERICENTER":175.8731,"MEAN_ANOMALY":184.2329,"EPHEMERIS_TYPE":0,"CLASSIFICATION_TYPE":"U","NORAD_CAT_ID":62373,"ELEMENT_SET_NO":999,"REV_AT_EPOCH":8280,"BSTAR":0.00063853778,"MEAN_MOTION_DOT":0.00019381,"MEAN_MOTION_DDOT":0}]
